#dP2021  3  3 12  0  0.00000000      96 __u+U ITR00 EXT  IAC
## 2147 302400.00000000   900.00000000 59276 0.5000000000000
+  116   C06C07C08C09C10C11C12C13C14C16C19C20C21C22C23C24C25
+        C26C27C28C29C30C32C33C34C35C36C37C38C39C40C41C42C43
+        C44C45C46E01E02E03E04E05E07E08E09E11E12E13E14E15E18
+        E19E21E24E25E26E27E30E31E33E36G01G02G03G05G06G07G08
+        G09G10G11G12G13G14G15G16G17G18G19G20G21G22G23G24G25
+        G26G27G28G29G30G31G32J01J02J03R01R02R03R04R05R07R08
+        R09R11R12R13R14R15R16R17R18R19R20R21R22R24  0  0  0
++        10 11  9 10 11  8  9 10 10 10  9 11  9 11  9 10 10
++         9 11  8 10  9  9 11 10 11  9 10  9 11 11  9 10 10
++        10 10 12  9  9  8  9  9  9  8  9  9 10 10  9  9  8
++         8  8  9  9  9  9  8  9  9  8  9  9  9  9  9  8  9
++         9  8  9  9  9  8  8 10  9  8  9  9  8  9  9  8  9
++         8  9  8  8  9  9  8  0 11  9  9  9 10 10  9 10  9
++         9  9 10  9 11 10 11 10 11 11 10 10  9  8  0  0  0
%c M  cc GPS ccc cccc cccc cccc cccc ccccc ccccc ccccc ccccc
%c cc cc ccc ccc cccc cccc cccc cccc ccccc ccccc ccccc ccccc
%f  0.0000000  0.000000000  0.00000000000  0.000000000000000
%f  0.0000000  0.000000000  0.00000000000  0.000000000000000
%i    0    0    0    0      0      0      0      0         0
%i    0    0    0    0      0      0      0      0         0
/* IAC                                ULTRA-RAPID PREDICTION
/* S/V CLOCKS ARE ALIGNED TO GNSS TIME                      
/* G:C1WC2W R:C1PC2P E:C1XC5X C:C2IC6I J:C1CC2S             
/* PCV:IGS14_2134 OL/AL:FES2004  NONE     YN ORB:CoN CLK:CoN
*  2021 03 03 16  0  0.00000000
PC06 -24020.789793  32561.769168 -12228.723643    142.382499
PC07  -9592.527073  33578.115371 -23013.853719   -381.457578
PC08 -14282.200664  17471.152518  35681.658545   -905.440217
PC09 -11858.858191  32017.801833 -24730.645293    694.551905
PC10   1422.971509  39940.360796 -12520.180494    -77.460038
PC11   -226.950636 -16999.566285 -22072.567009   -890.470054
PC12  17058.035849 -19398.880358 -10537.106387    837.725608
PC13   1854.205028  23794.368594  34900.836025    164.947849
PC14  -4627.178523 -27277.118541   3892.016508    309.007535
PC16 -20599.502735  33243.254013 -15959.366356   -718.558592
PC19  10351.715896  22620.517747 -12602.309569    748.200025
PC20   -892.389205  27577.839494   4093.386658   -923.046733
PC21  12154.186290 -16286.212818 -19113.852410   -865.776178
PC22  15921.177400   4358.203656 -22491.011700   -901.241420
PC23 -25970.565862  -7492.806945  -6925.950065   -876.205586
PC24    -74.074726 -17449.267856  21757.984327   -773.300925
PC25 -19550.662655 -17145.782350  10087.636051   -953.166530
PC26  17267.514127  -7971.055434  20423.495371    940.658510
PC27 -22834.559560  15989.685285   1517.937352    492.569436
PC28 -23279.952444   2575.831257 -15165.813094   -102.831378
PC29  10565.934292  11934.805046  22900.273206    360.001159
PC30  -8704.568116  20407.520799  16940.769487    449.474005
PC32 -12076.180164  16332.987024  19148.900748   -904.527825
PC33 -10474.390664 -22623.110520  12563.362670   -951.869647
PC34   8019.349920 -20293.945057 -17385.320486   -727.348178
PC35  23071.349845  -3063.002426  15366.368240   -391.923100
PC36  18921.460185  17694.872587 -10363.570261   -746.968953
PC37 -18075.114073   6977.553859 -20064.174266   -871.138819
PC38 -11999.693072  20938.240617  34596.725698    133.536252
PC39 -18350.534570  34564.481475 -15865.511128     29.037321
PC40  -2974.422377  38901.841359 -15806.363952    137.225035
PC41 -15987.421730  -4629.728887  22447.537618   -930.385046
PC42   1278.745058 -27483.235363  -4662.418428   -910.258048
PC43 -10160.449509 -12390.944702 -22851.523469   -622.905347
PC44  22331.699640 -16646.456630  -1342.909761     67.120329
PC45  25983.937505   7429.503759   7007.699619    376.980249
PC46   1190.128526  17660.175864 -21583.512364    379.854500
PE01  20657.393781   4347.573076  20750.871678  -1057.811962
PE02 -20607.789664  -4196.709897 -20825.545057    202.409584
PE03 -19347.789157   7031.497577  21263.876105   -404.810004
PE04  15727.963066 -24038.825561  -7131.106508   -721.300664
PE05 -11664.601696 -14345.093228  23117.241422   -300.028496
PE07  -2749.500975  27143.961107 -11466.109469   -508.031403
PE08 -15422.893164  24301.786409   6886.127431   6038.713359
PE09   2552.801771 -27098.735043  11652.670461   5747.000322
PE11   -896.912304 -16224.321712 -24741.253513   6251.159765
PE12  20612.091308 -13502.079493 -16377.627996   5328.532969
PE13    415.639644  16204.286440  24778.275827    412.988782
PE14 -23236.331766   8283.645395 -15832.914692  -1349.119390
PE15 -20560.370327  13548.433140  16447.775116    826.529881
PE18  18810.385197 -21239.732255   1241.013774  -1475.071827
PE19  18906.556590  -4617.336754 -22296.740399    217.670193
PE21  20458.446317  20542.110922   5993.521228   -651.550095
PE24  -7641.517487 -25317.723924  13249.754295   -773.187712
PE25 -20392.064771 -20640.302003  -5826.897699   -527.625171
PE26  21679.423210   9164.989618  17957.797280   2084.270308
PE27   8354.913236  25400.631902 -12714.962288     18.197424
PE30  -9348.989005  14625.526943 -23991.685746   3136.533053
PE31   8599.071826 -15289.565154  23843.188159   -478.816130
PE33  29408.988238  -2906.697018   1573.800867   -466.185353
PE36 -21130.680733  -9317.736118 -18511.724212    433.180998
PG01 -14404.647801 -13532.424270 -18153.327738    749.473356
PG02 -10666.781052  14123.583393  20473.927660   -582.485573
PG03 -13131.291986 -22915.050440   3233.980042    -97.982947
PG05   1155.057676  22831.898389  13217.091912    -35.203486
PG06 -22452.431001   6534.668951  12714.091285     -0.829769
PG07 -24934.937469  -7349.272501   6924.517479     77.730307
PG08   1110.574903 -21136.198004 -15851.948020    -12.346228
PG09 -14370.112447  -5946.439067  21471.168517   -327.900180
PG10  15751.805167   -916.434113 -21292.738843    -73.290987
PG11  -6917.470626 -14904.649904 -21314.007526     -9.137755
PG12   9080.219912  25048.930835   -675.096753     -8.805063
PG13 -11379.838048  22047.360955  -9438.656792    103.561048
PG14 -16286.263910   -806.145868 -20979.243777     99.439816
PG15   2063.260115  21218.010849 -15974.082242   -165.635568
PG16   2935.780881 -21462.614639  14801.646962   -288.444617
PG17 -19941.328638  10730.086191 -13445.867221    403.548498
PG18  25862.678570   5176.525575   3381.092462    349.462491
PG19 -20086.838493  15921.651534  -7051.388417    -31.186097
PG20  19708.220170  10309.845938 -14766.942305    524.434424
PG21  -6631.135575 -14588.440820 -20530.694630    100.175557
PG22  -9383.400657 -24237.033368  -5704.533963   -668.113625
PG23  18029.349654  10324.197604 -16591.057272    118.175268
PG24   9323.715869  15041.335628 -20150.078624      1.591608
PG25  16822.392515  17073.961324  11479.084614     91.586571
PG26   9544.727919 -13852.272556  20443.933084     52.872464
PG27  11484.463780 -23086.307327  -5652.958008    -87.025080
PG28 -14788.380091   1870.342558 -21410.223149    607.563115
PG29  13491.929697   6457.867470  21908.790288   -305.163842
PG30 -26099.935815   1001.708486  -5400.119099   -393.036845
PG31  21053.273369  -7870.994660  14427.407798   -103.403995
PG32  19505.065382 -12477.191765 -12758.598265     20.382892
PJ01 -27874.440187  27137.314874  21179.155334   -352.053213
PJ02 -22602.315904  17795.565501 -26352.754643      2.738705
PJ03 -29429.694513  30094.602585   7715.217401     -1.284822
PR01   9903.938386 -16051.745885 -17177.889373     75.843835
PR02   2052.418635 -25289.028937   2345.981652    469.251517
PR03  -6448.714348 -17165.002112  17750.082025     31.734134
PR04 -10949.849060    502.835062  23060.656093     76.284116
PR05  -9524.161495  17911.826356  15490.470689     67.480322
PR07   6621.020519  16748.749693 -18047.068380    -42.527735
PR08  11039.108684   -522.574156 -22933.288953    -57.698953
PR09   6283.426780  16033.982494 -18778.003890    -18.966446
PR11  20776.959481   7625.270948  12682.263185      2.655893
PR12  10201.454471  -5872.934988  22652.429839    209.551489
PR13  -6016.906047 -15681.316150  19173.991172    -51.502364
PR14 -19021.861770 -16515.495571   4044.714313     61.605662
PR15 -20591.443243  -7626.428905 -12961.369269    105.109664
PR16  -9240.534241   7006.220794 -22736.298880    -12.012025
PR17 -11094.472386  -6202.611890 -22097.316284    404.832732
PR18 -22529.703982   3889.721607 -11355.011271     68.523814
PR19 -22530.576378  11010.930601   4680.766662   -134.264876
PR20  -7884.591470  12863.353975  20594.155847    -44.400977
PR21  12159.283431   5511.320028  21743.873844   -191.715644
PR22  22820.226235  -4381.880547  10392.839825   -100.742242
PR24   6806.156868 -13213.222218 -20711.812558     33.609860
EOF
